start=new Date('2022-10-15T00:00:00.000Z').valueOf();
sats=[{"LAUNCH_DATE":"2022-05-13","TLE_LINE1":"1 52536U 22051D   22287.77130018  .00001093  00000-0  86765-4 0  9998","MEAN_ELEMENT_THEORY":"SGP4","REF_FRAME":"TEME","PERIAPSIS":"538.324","GP_ID":"215146133","RA_OF_ASC_NODE":"304.3206","APOAPSIS":"541.133","OBJECT_TYPE":"PAYLOAD","SITE":"AFWTR","ECCENTRICITY":"0.00020300","BSTAR":"0.00008676500000","CENTER_NAME":"EARTH","TIME_SYSTEM":"UTC","RCS_SIZE":"LARGE","PERIOD":"95.437","DECAY_DATE":null,"ELEMENT_SET_NO":"999","MEAN_MOTION_DDOT":"0.0000000000000","SEMIMAJOR_AXIS":"6917.864","OBJECT_ID":"2022-051D","MEAN_ANOMALY":"313.7732","CLASSIFICATION_TYPE":"U","MEAN_MOTION":"15.08845450","NORAD_CAT_ID":"52536","MEAN_MOTION_DOT":"0.00001093","FILE":"3612869","INCLINATION":"53.2169","ARG_OF_PERICENTER":"46.3428","EPOCH":"2022-10-14T18:30:40.335552","EPHEMERIS_TYPE":"0","COUNTRY_CODE":"US","TLE_LINE2":"2 52536  53.2169 304.3206 0002030  46.3428 313.7732 15.08845450 23954","REV_AT_EPOCH":"2395","OBJECT_NAME":"STARLINK-3964"},{"BSTAR":"0.00008833300000","RCS_SIZE":"LARGE","TIME_SYSTEM":"UTC","CENTER_NAME":"EARTH","SITE":"AFWTR","OBJECT_TYPE":"PAYLOAD","APOAPSIS":"541.107","RA_OF_ASC_NODE":"304.3424","GP_ID":"215145882","ECCENTRICITY":"0.00019900","PERIAPSIS":"538.354","REF_FRAME":"TEME","MEAN_ELEMENT_THEORY":"SGP4","TLE_LINE1":"1 52537U 22051E   22287.76761684  .00001118  00000-0  88333-4 0  9998","LAUNCH_DATE":"2022-05-13","COUNTRY_CODE":"US","EPOCH":"2022-10-14T18:25:22.094976","EPHEMERIS_TYPE":"0","REV_AT_EPOCH":"2395","OBJECT_NAME":"STARLINK-3897","TLE_LINE2":"2 52537  53.2165 304.3424 0001990  49.5753 310.5413 15.08844913 23957","NORAD_CAT_ID":"52537","MEAN_MOTION":"15.08844913","ARG_OF_PERICENTER":"49.5753","INCLINATION":"53.2165","FILE":"3612869","MEAN_MOTION_DOT":"0.00001118","OBJECT_ID":"2022-051E","MEAN_ANOMALY":"310.5413","CLASSIFICATION_TYPE":"U","DECAY_DATE":null,"PERIOD":"95.437","SEMIMAJOR_AXIS":"6917.865","ELEMENT_SET_NO":"999","MEAN_MOTION_DDOT":"0.0000000000000"},{"EPHEMERIS_TYPE":"0","EPOCH":"2022-10-14T18:14:45.553344","COUNTRY_CODE":"US","OBJECT_NAME":"STARLINK-3933","REV_AT_EPOCH":"2395","TLE_LINE2":"2 52538  53.2152 304.3677 0001979  39.4846 320.6290 15.08855750 23958","NORAD_CAT_ID":"52538","MEAN_MOTION":"15.08855750","FILE":"3612869","ARG_OF_PERICENTER":"39.4846","INCLINATION":"53.2152","MEAN_MOTION_DOT":"0.00003614","MEAN_ANOMALY":"320.6290","OBJECT_ID":"2022-051F","CLASSIFICATION_TYPE":"U","PERIOD":"95.437","DECAY_DATE":null,"SEMIMAJOR_AXIS":"6917.832","MEAN_MOTION_DDOT":"0.0000000000000","ELEMENT_SET_NO":"999","BSTAR":"0.00024495000000","TIME_SYSTEM":"UTC","RCS_SIZE":"LARGE","CENTER_NAME":"EARTH","OBJECT_TYPE":"PAYLOAD","SITE":"AFWTR","RA_OF_ASC_NODE":"304.3677","GP_ID":"215146634","APOAPSIS":"541.066","ECCENTRICITY":"0.00019790","PERIAPSIS":"538.328","REF_FRAME":"TEME","MEAN_ELEMENT_THEORY":"SGP4","LAUNCH_DATE":"2022-05-13","TLE_LINE1":"1 52538U 22051F   22287.76024946  .00003614  00000-0  24495-3 0  9993"},{"PERIAPSIS":"538.182","REF_FRAME":"TEME","MEAN_ELEMENT_THEORY":"SGP4","TLE_LINE1":"1 52539U 22051G   22287.76393415  .00002415  00000-0  16974-3 0  9995","LAUNCH_DATE":"2022-05-13","RCS_SIZE":"LARGE","TIME_SYSTEM":"UTC","CENTER_NAME":"EARTH","BSTAR":"0.00016974000000","ECCENTRICITY":"0.00022360","SITE":"AFWTR","OBJECT_TYPE":"PAYLOAD","APOAPSIS":"541.276","RA_OF_ASC_NODE":"304.3528","GP_ID":"215146049","CLASSIFICATION_TYPE":"U","MEAN_ANOMALY":"318.0325","OBJECT_ID":"2022-051G","SEMIMAJOR_AXIS":"6917.864","ELEMENT_SET_NO":"999","MEAN_MOTION_DDOT":"0.0000000000000","DECAY_DATE":null,"PERIOD":"95.437","REV_AT_EPOCH":"2395","OBJECT_NAME":"STARLINK-3757","TLE_LINE2":"2 52539  53.2160 304.3528 0002236  42.0839 318.0325 15.08845350 23957","COUNTRY_CODE":"US","EPOCH":"2022-10-14T18:20:03.910560","EPHEMERIS_TYPE":"0","ARG_OF_PERICENTER":"42.0839","INCLINATION":"53.2160","FILE":"3612869","MEAN_MOTION_DOT":"0.00002415","NORAD_CAT_ID":"52539","MEAN_MOTION":"15.08845350"},{"BSTAR":"0.00034551000000","CENTER_NAME":"EARTH","TIME_SYSTEM":"UTC","RCS_SIZE":"LARGE","RA_OF_ASC_NODE":"306.1995","GP_ID":"215104192","APOAPSIS":"541.357","OBJECT_TYPE":"PAYLOAD","SITE":"AFWTR","ECCENTRICITY":"0.00022180","REF_FRAME":"TEME","PERIAPSIS":"538.288","LAUNCH_DATE":"2022-05-13","TLE_LINE1":"1 52540U 22051H   22287.35178070  .00005211  00000-0  34551-3 0  9998","MEAN_ELEMENT_THEORY":"SGP4","EPHEMERIS_TYPE":"0","EPOCH":"2022-10-14T08:26:33.852480","COUNTRY_CODE":"US","TLE_LINE2":"2 52540  53.2171 306.1995 0002218  41.3394 318.7766 15.08814696 23895","REV_AT_EPOCH":"2389","OBJECT_NAME":"STARLINK-3940","MEAN_MOTION":"15.08814696","NORAD_CAT_ID":"52540","MEAN_MOTION_DOT":"0.00005211","FILE":"3611991","ARG_OF_PERICENTER":"41.3394","INCLINATION":"53.2171","MEAN_ANOMALY":"318.7766","OBJECT_ID":"2022-051H","CLASSIFICATION_TYPE":"U","PERIOD":"95.439","DECAY_DATE":null,"ELEMENT_SET_NO":"999","MEAN_MOTION_DDOT":"0.0000000000000","SEMIMAJOR_AXIS":"6917.958"},{"MEAN_MOTION_DDOT":"0.0000000000000","ELEMENT_SET_NO":"999","SEMIMAJOR_AXIS":"6917.877","DECAY_DATE":null,"PERIOD":"95.437","CLASSIFICATION_TYPE":"U","MEAN_ANOMALY":"314.0284","OBJECT_ID":"2022-051J","MEAN_MOTION_DOT":"0.00001472","INCLINATION":"53.2158","ARG_OF_PERICENTER":"46.0869","FILE":"3612869","MEAN_MOTION":"15.08841256","NORAD_CAT_ID":"52541","TLE_LINE2":"2 52541  53.2158 309.2563 0001953  46.0869 314.0284 15.08841256 23885","REV_AT_EPOCH":"2388","OBJECT_NAME":"STARLINK-3845","COUNTRY_CODE":"US","EPHEMERIS_TYPE":"0","EPOCH":"2022-10-14T18:48:33.223968","TLE_LINE1":"1 52541U 22051J   22287.78371787  .00001472  00000-0  11056-3 0  9996","LAUNCH_DATE":"2022-05-13","MEAN_ELEMENT_THEORY":"SGP4","REF_FRAME":"TEME","PERIAPSIS":"538.390","ECCENTRICITY":"0.00019530","APOAPSIS":"541.093","GP_ID":"215146301","RA_OF_ASC_NODE":"309.2563","SITE":"AFWTR","OBJECT_TYPE":"PAYLOAD","CENTER_NAME":"EARTH","RCS_SIZE":"LARGE","TIME_SYSTEM":"UTC","BSTAR":"0.00011056000000"},{"COUNTRY_CODE":"US","EPOCH":"2022-10-14T11:32:02.118048","EPHEMERIS_TYPE":"0","TLE_LINE2":"2 52542  53.2185 305.6125 0002212  38.4163 321.6986 15.08841441 23914","REV_AT_EPOCH":"2391","OBJECT_NAME":"STARLINK-3937","MEAN_MOTION":"15.08841441","NORAD_CAT_ID":"52542","MEAN_MOTION_DOT":"0.00001233","ARG_OF_PERICENTER":"38.4163","INCLINATION":"53.2185","FILE":"3611991","MEAN_ANOMALY":"321.6986","OBJECT_ID":"2022-051K","CLASSIFICATION_TYPE":"U","DECAY_DATE":null,"PERIOD":"95.437","MEAN_MOTION_DDOT":"0.0000000000000","ELEMENT_SET_NO":"999","SEMIMAJOR_AXIS":"6917.876","BSTAR":"0.00009558200000","CENTER_NAME":"EARTH","RCS_SIZE":"LARGE","TIME_SYSTEM":"UTC","APOAPSIS":"541.271","RA_OF_ASC_NODE":"305.6125","GP_ID":"215104361","SITE":"AFWTR","OBJECT_TYPE":"PAYLOAD","ECCENTRICITY":"0.00022120","REF_FRAME":"TEME","PERIAPSIS":"538.211","TLE_LINE1":"1 52542U 22051K   22287.48058007  .00001233  00000-0  95582-4 0  9993","LAUNCH_DATE":"2022-05-13","MEAN_ELEMENT_THEORY":"SGP4"},{"CLASSIFICATION_TYPE":"U","MEAN_ANOMALY":"320.5354","OBJECT_ID":"2022-051L","SEMIMAJOR_AXIS":"6917.878","MEAN_MOTION_DDOT":"0.0000000000000","ELEMENT_SET_NO":"999","DECAY_DATE":null,"PERIOD":"95.438","REV_AT_EPOCH":"2389","OBJECT_NAME":"STARLINK-3926","TLE_LINE2":"2 52543  53.2161 306.1707 0002283  39.5804 320.5354 15.08840678 23898","COUNTRY_CODE":"US","EPHEMERIS_TYPE":"0","EPOCH":"2022-10-14T08:37:08.937408","ARG_OF_PERICENTER":"39.5804","INCLINATION":"53.2161","FILE":"3611991","MEAN_MOTION_DOT":"0.00000535","NORAD_CAT_ID":"52543","MEAN_MOTION":"15.08840678","PERIAPSIS":"538.164","REF_FRAME":"TEME","MEAN_ELEMENT_THEORY":"SGP4","TLE_LINE1":"1 52543U 22051L   22287.35913122  .00000535  00000-0  51700-4 0  9996","LAUNCH_DATE":"2022-05-13","RCS_SIZE":"LARGE","TIME_SYSTEM":"UTC","CENTER_NAME":"EARTH","BSTAR":"0.00005170000000","ECCENTRICITY":"0.00022830","SITE":"AFWTR","OBJECT_TYPE":"PAYLOAD","APOAPSIS":"541.323","GP_ID":"215104528","RA_OF_ASC_NODE":"306.1707"},{"ECCENTRICITY":"0.00019820","GP_ID":"215146134","RA_OF_ASC_NODE":"309.2996","APOAPSIS":"541.113","OBJECT_TYPE":"PAYLOAD","SITE":"AFWTR","CENTER_NAME":"EARTH","TIME_SYSTEM":"UTC","RCS_SIZE":"LARGE","BSTAR":"0.00006766100000","LAUNCH_DATE":"2022-05-13","TLE_LINE1":"1 52544U 22051M   22287.77635778  .00000789  00000-0  67661-4 0  9995","MEAN_ELEMENT_THEORY":"SGP4","REF_FRAME":"TEME","PERIAPSIS":"538.371","MEAN_MOTION_DOT":"0.00000789","FILE":"3612869","INCLINATION":"53.2163","ARG_OF_PERICENTER":"35.7001","MEAN_MOTION":"15.08841020","NORAD_CAT_ID":"52544","TLE_LINE2":"2 52544  53.2163 309.2996 0001982  35.7001 324.4124 15.08841020 23886","OBJECT_NAME":"STARLINK-3944","REV_AT_EPOCH":"2388","EPHEMERIS_TYPE":"0","EPOCH":"2022-10-14T18:37:57.312192","COUNTRY_CODE":"US","MEAN_MOTION_DDOT":"0.0000000000000","ELEMENT_SET_NO":"999","SEMIMAJOR_AXIS":"6917.877","PERIOD":"95.437","DECAY_DATE":null,"CLASSIFICATION_TYPE":"U","OBJECT_ID":"2022-051M","MEAN_ANOMALY":"324.4124"},{"MEAN_ELEMENT_THEORY":"SGP4","LAUNCH_DATE":"2022-05-13","TLE_LINE1":"1 52545U 22051N   22287.75289912  .00000323  00000-0  38427-4 0  9991","PERIAPSIS":"538.234","REF_FRAME":"TEME","ECCENTRICITY":"0.00021790","OBJECT_TYPE":"PAYLOAD","SITE":"AFWTR","GP_ID":"215145883","RA_OF_ASC_NODE":"304.4049","APOAPSIS":"541.249","TIME_SYSTEM":"UTC","RCS_SIZE":"LARGE","CENTER_NAME":"EARTH","BSTAR":"0.00003842700000","SEMIMAJOR_AXIS":"6917.876","MEAN_MOTION_DDOT":"0.0000000000000","ELEMENT_SET_NO":"999","PERIOD":"95.437","DECAY_DATE":null,"CLASSIFICATION_TYPE":"U","OBJECT_ID":"2022-051N","MEAN_ANOMALY":"323.6867","FILE":"3612869","INCLINATION":"53.2182","ARG_OF_PERICENTER":"36.4274","MEAN_MOTION_DOT":"0.00000323","NORAD_CAT_ID":"52545","MEAN_MOTION":"15.08841317","REV_AT_EPOCH":"2395","OBJECT_NAME":"STARLINK-3939","TLE_LINE2":"2 52545  53.2182 304.4049 0002179  36.4274 323.6867 15.08841317 23955","EPOCH":"2022-10-14T18:04:10.483968","EPHEMERIS_TYPE":"0","COUNTRY_CODE":"US"}];
